EWS-G2 (GOES 15)        
1 36411U 10008A   25151.59956157  .00000032  00000+0  00000+0 0  9998
2 36411   0.2896  85.7127 0001714 123.0296 317.9012  1.00268357 55812
GOES 16                 
1 41866U 16071A   25151.42215781 -.00000094  00000+0  00000+0 0  9996
2 41866   0.0464 258.3763 0001371 233.2716 167.9370  1.00124471 31277
GOES 17                 
1 43226U 18022A   25151.88031012 -.00000098  00000+0  00000+0 0  9993
2 43226   0.0285 181.6815 0002771 283.0226 357.4074  1.00271826 26616
GOES 18                 
1 51850U 22021A   25151.55792256  .00000091  00000+0  00000+0 0  9999
2 51850   0.0352 137.4918 0000150  11.6266 164.0295  1.00272596 11979
GOES 19                 
1 60133U 24119A   25151.44419547 -.00000253  00000+0  00000+0 0  9991
2 60133   0.0445 130.6655 0000061  39.5272 163.6825  1.00269783  3133
